{
  "type": "FeatureCollection",
  "features": [
    {
      "type": "Feature",
      "properties": {
        "norad_id": 66908,
        "name": "1998-067XU",
        "group": "last-30-days",
        "lat": 51.60741812429508,
        "lon": -98.18031411166164,
        "alt_km": 408.82087016949663,
        "timestamp": "2025-12-06T22:38:41.510157+00:00",
        "meta_object_name": "1998-067XU",
        "meta_object_id": "1998-067XU",
        "meta_epoch": "2025-12-06T09:52:54.497568",
        "meta_mean_motion": 15.50486403,
        "meta_eccentricity": 0.0005415,
        "meta_inclination": 51.6293,
        "meta_ra_of_asc_node": 173.7848,
        "meta_arg_of_pericenter": 192.211,
        "meta_mean_anomaly": 167.8749,
        "meta_ephemeris_type": 0,
        "meta_classification_type": "U",
        "meta_norad_cat_id": 66908,
        "meta_element_set_no": 999,
        "meta_rev_at_epoch": 63,
        "meta_bstar": 0.0014263123,
        "meta_mean_motion_dot": 0.00083271,
        "meta_mean_motion_ddot": 0,
        "tle_line1": "1 66908U 98067XU  25340.41174187  .00083271  00000+0  14263-2 0  9994",
        "tle_line2": "2 66908  51.6293 173.7848 0005415 192.2110 167.8749 15.50486403   633"
      },
      "geometry": {
        "type": "Point",
        "coordinates": [
          -98.18031411166164,
          51.60741812429508
        ]
      }
    },
    {
      "type": "Feature",
      "properties": {
        "norad_id": 66909,
        "name": "1998-067XV",
        "group": "last-30-days",
        "lat": 51.60571291647665,
        "lon": -97.89164509490163,
        "alt_km": 408.7346698043175,
        "timestamp": "2025-12-06T22:38:41.510173+00:00",
        "meta_object_name": "1998-067XV",
        "meta_object_id": "1998-067XV",
        "meta_epoch": "2025-12-06T14:31:18.459264",
        "meta_mean_motion": 15.50547779,
        "meta_eccentricity": 0.00052426,
        "meta_inclination": 51.6296,
        "meta_ra_of_asc_node": 172.8258,
        "meta_arg_of_pericenter": 193.8867,
        "meta_mean_anomaly": 166.1979,
        "meta_ephemeris_type": 0,
        "meta_classification_type": "U",
        "meta_norad_cat_id": 66909,
        "meta_element_set_no": 999,
        "meta_rev_at_epoch": 66,
        "meta_bstar": 0.0015899979,
        "meta_mean_motion_dot": 0.00093198,
        "meta_mean_motion_ddot": 0,
        "tle_line1": "1 66909U 98067XV  25340.60507476  .00093198  00000+0  15900-2 0  9995",
        "tle_line2": "2 66909  51.6296 172.8258 0005242 193.8867 166.1979 15.50547779   660"
      },
      "geometry": {
        "type": "Point",
        "coordinates": [
          -97.89164509490163,
          51.60571291647665
        ]
      }
    },
    {
      "type": "Feature",
      "properties": {
        "norad_id": 66910,
        "name": "1998-067XW",
        "group": "last-30-days",
        "lat": 51.32420448855735,
        "lon": -90.6872324494921,
        "alt_km": 406.8844709841751,
        "timestamp": "2025-12-06T22:38:41.510184+00:00",
        "meta_object_name": "1998-067XW",
        "meta_object_id": "1998-067XW",
        "meta_epoch": "2025-12-06T14:30:13.476960",
        "meta_mean_motion": 15.50789302,
        "meta_eccentricity": 0.00061597,
        "meta_inclination": 51.6294,
        "meta_ra_of_asc_node": 172.8206,
        "meta_arg_of_pericenter": 179.5377,
        "meta_mean_anomaly": 180.5619,
        "meta_ephemeris_type": 0,
        "meta_classification_type": "U",
        "meta_norad_cat_id": 66910,
        "meta_element_set_no": 999,
        "meta_rev_at_epoch": 66,
        "meta_bstar": 0.0013604594,
        "meta_mean_motion_dot": 0.0008025,
        "meta_mean_motion_ddot": 0,
        "tle_line1": "1 66910U 98067XW  25340.60432265  .00080250  00000+0  13605-2 0  9995",
        "tle_line2": "2 66910  51.6294 172.8206 0006159 179.5377 180.5619 15.50789302   669"
      },
      "geometry": {
        "type": "Point",
        "coordinates": [
          -90.6872324494921,
          51.32420448855735
        ]
      }
    },
    {
      "type": "Feature",
      "properties": {
        "norad_id": 66911,
        "name": "1998-067XX",
        "group": "last-30-days",
        "lat": 51.255525665336165,
        "lon": -89.76308859575552,
        "alt_km": 406.6422727407389,
        "timestamp": "2025-12-06T22:38:41.510194+00:00",
        "meta_object_name": "1998-067XX",
        "meta_object_id": "1998-067XX",
        "meta_epoch": "2025-12-06T14:30:06.081984",
        "meta_mean_motion": 15.50869311,
        "meta_eccentricity": 0.00060509,
        "meta_inclination": 51.6293,
        "meta_ra_of_asc_node": 172.8204,
        "meta_arg_of_pericenter": 180.1037,
        "meta_mean_anomaly": 179.9952,
        "meta_ephemeris_type": 0,
        "meta_classification_type": "U",
        "meta_norad_cat_id": 66911,
        "meta_element_set_no": 999,
        "meta_rev_at_epoch": 65,
        "meta_bstar": 0.0015610395,
        "meta_mean_motion_dot": 0.00092556,
        "meta_mean_motion_ddot": 0,
        "tle_line1": "1 66911U 98067XX  25340.60423706  .00092556  00000+0  15610-2 0  9996",
        "tle_line2": "2 66911  51.6293 172.8204 0006050 180.1037 179.9952 15.50869311   658"
      },
      "geometry": {
        "type": "Point",
        "coordinates": [
          -89.76308859575552,
          51.255525665336165
        ]
      }
    },
    {
      "type": "Feature",
      "properties": {
        "norad_id": 66912,
        "name": "1998-067XY",
        "group": "last-30-days",
        "lat": 51.589991107599566,
        "lon": -100.99529075124589,
        "alt_km": 409.45927369219953,
        "timestamp": "2025-12-06T22:38:41.510206+00:00",
        "meta_object_name": "1998-067XY",
        "meta_object_id": "1998-067XY",
        "meta_epoch": "2025-12-06T14:31:44.195232",
        "meta_mean_motion": 15.50339462,
        "meta_eccentricity": 0.00052344,
        "meta_inclination": 51.6295,
        "meta_ra_of_asc_node": 172.8274,
        "meta_arg_of_pericenter": 193.0919,
        "meta_mean_anomaly": 166.9935,
        "meta_ephemeris_type": 0,
        "meta_classification_type": "U",
        "meta_norad_cat_id": 66912,
        "meta_element_set_no": 999,
        "meta_rev_at_epoch": 65,
        "meta_bstar": 0.0011669061,
        "meta_mean_motion_dot": 0.00067549,
        "meta_mean_motion_ddot": 0,
        "tle_line1": "1 66912U 98067XY  25340.60537263  .00067549  00000+0  11669-2 0  9995",
        "tle_line2": "2 66912  51.6295 172.8274 0005234 193.0919 166.9935 15.50339462   659"
      },
      "geometry": {
        "type": "Point",
        "coordinates": [
          -100.99529075124589,
          51.589991107599566
        ]
      }
    },
    {
      "type": "Feature",
      "properties": {
        "norad_id": 66913,
        "name": "2025-284A",
        "group": "last-30-days",
        "lat": 62.20925767115726,
        "lon": 155.8404966564188,
        "alt_km": 508.41866534050314,
        "timestamp": "2025-12-06T22:38:41.510216+00:00",
        "meta_object_name": "2025-284A",
        "meta_object_id": "2025-284A",
        "meta_epoch": "2025-12-05T19:30:25.528608",
        "meta_mean_motion": 15.20033669,
        "meta_eccentricity": 0.00128266,
        "meta_inclination": 80.4023,
        "meta_ra_of_asc_node": 138.5488,
        "meta_arg_of_pericenter": 252.3263,
        "meta_mean_anomaly": 107.6565,
        "meta_ephemeris_type": 0,
        "meta_classification_type": "U",
        "meta_norad_cat_id": 66913,
        "meta_element_set_no": 999,
        "meta_rev_at_epoch": 7,
        "meta_bstar": 0.00014555981,
        "meta_mean_motion_dot": 3.163e-05,
        "meta_mean_motion_ddot": 0,
        "tle_line1": "1 66913U 25284A   25339.81279547  .00003163  00000+0  14556-3 0  9997",
        "tle_line2": "2 66913  80.4023 138.5488 0012826 252.3263 107.6565 15.20033669    75"
      },
      "geometry": {
        "type": "Point",
        "coordinates": [
          155.8404966564188,
          62.20925767115726
        ]
      }
    },
    {
      "type": "Feature",
      "properties": {
        "norad_id": 66915,
        "name": "HULIANWANG DIGUI 14A",
        "group": "last-30-days",
        "lat": 3.413682711241682,
        "lon": 143.76970706420596,
        "alt_km": 877.6246627745995,
        "timestamp": "2025-12-06T22:38:41.510228+00:00",
        "meta_object_name": "HULIANWANG DIGUI 14A",
        "meta_object_id": "2025-285A",
        "meta_epoch": "2025-12-06T08:58:45.410016",
        "meta_mean_motion": 14.06225102,
        "meta_eccentricity": 0.00087698,
        "meta_inclination": 49.9887,
        "meta_ra_of_asc_node": 143.2276,
        "meta_arg_of_pericenter": 217.1051,
        "meta_mean_anomaly": 142.9249,
        "meta_ephemeris_type": 0,
        "meta_classification_type": "U",
        "meta_norad_cat_id": 66915,
        "meta_element_set_no": 999,
        "meta_rev_at_epoch": 1,
        "meta_bstar": 1.8511052e-05,
        "meta_mean_motion_dot": -1.22e-06,
        "meta_mean_motion_ddot": 0,
        "tle_line1": "1 66915U 25285A   25340.37413669 -.00000122  00000+0  18511-4 0  9997",
        "tle_line2": "2 66915  49.9887 143.2276 0008769 217.1051 142.9249 14.06225102    11"
      },
      "geometry": {
        "type": "Point",
        "coordinates": [
          143.76970706420596,
          3.413682711241682
        ]
      }
    }
  ]
}